NORAD_CAT_ID,OBJECT_NAME,OBJECT_TYPE,EPOCH,MEAN_MOTION,ECCENTRICITY,INCLINATION,RA_OF_ASC_NODE,ARG_OF_PERICENTER,MEAN_ANOMALY,BSTAR,MEAN_MOTION_DOT,MEAN_MOTION_DDOT,TLE_LINE0,TLE_LINE1,TLE_LINE2,SEMIMAJOR_AXIS,PERIOD,APOGEE,PERIGEE,DECAYED
53839.0,STARLINK-4784,PAYLOAD,2023-08-14 07:16:27,15.08852538,0.0001311,53.2157,186.9466,89.5597,270.5546,0.0001904,2.745e-05,0.0,0 STARLINK-4784,1 53839U 22114X   23226.30309206  .00002745  00000-0  19040-3 0  9991,2 53839  53.2157 186.9466 0001311  89.5597 270.5546 15.08852538 50764,6917.842,95.437,540.614,538.8,0.0
53839.0,STARLINK-4784,PAYLOAD,2023-08-15 02:21:07,15.08826824,0.0001401,53.2162,183.378,103.3862,256.7287,-2.5523e-05,-6.94e-06,0.0,0 STARLINK-4784,1 53839U 22114X   23227.09799819 -.00000694  00000-0 -25523-4 0  9998,2 53839  53.2162 183.3780 0001401 103.3862 256.7287 15.08826824 50880,6917.921,95.438,540.755,538.816,0.0
53839.0,STARLINK-4784,PAYLOAD,2023-08-16 05:22:40,15.08830909,0.0001819,53.217,178.3245,97.1936,262.9263,-2.6021e-05,-7.02e-06,0.0,0 STARLINK-4784,1 53839U 22114X   23228.22408011 -.00000702  00000-0 -26021-4 0  9999,2 53839  53.2170 178.3245 0001819  97.1936 262.9263 15.08830909 51056,6917.908,95.438,541.032,538.515,0.0
53839.0,STARLINK-4784,PAYLOAD,2023-08-17 06:48:50,15.08829095,0.0001458,53.2175,173.5671,110.9426,249.1722,0.00024443,3.603e-05,0.0,0 STARLINK-4784,1 53839U 22114X   23229.28391649  .00003603  00000-0  24443-3 0  9990,2 53839  53.2175 173.5671 0001458 110.9426 249.1722 15.08829095 51217,6917.914,95.438,540.787,538.77,0.0
53839.0,STARLINK-4784,PAYLOAD,2023-08-18 03:28:52,15.08833914,0.0001283,53.217,169.7,89.5863,270.5276,2.815e-05,1.6e-06,0.0,0 STARLINK-4784,1 53839U 22114X   23230.14504672  .00000160  00000-0  28150-4 0  9994,2 53839  53.2170 169.7000 0001283  89.5863 270.5276 15.08833914 51348,6917.899,95.438,540.652,538.876,0.0
53839.0,STARLINK-4784,PAYLOAD,2023-08-19 04:55:01,15.08846625,0.0001323,53.2169,164.9425,86.8841,273.2302,-1.5388e-05,-5.33e-06,0.0,0 STARLINK-4784,1 53839U 22114X   23231.20488321 -.00000533  00000-0 -15388-4 0  9999,2 53839  53.2169 164.9425 0001323  86.8841 273.2302 15.08846625 51506,6917.86,95.437,540.64,538.81,0.0
53839.0,STARLINK-4784,PAYLOAD,2023-08-19 12:51:57,15.08839843,0.0001331,53.2169,163.4564,89.3682,270.7463,-2.7502e-05,-7.26e-06,0.0,0 STARLINK-4784,1 53839U 22114X   23231.53608710 -.00000726  00000-0 -27502-4 0  9996,2 53839  53.2169 163.4564 0001331  89.3682 270.7463 15.08839843 51553,6917.881,95.438,540.667,538.825,0.0
53839.0,STARLINK-4784,PAYLOAD,2023-08-20 01:35:03,15.0882943,0.0001277,53.2167,161.0755,88.2547,271.8591,-6.6375e-05,-1.344e-05,0.0,0 STARLINK-4784,1 53839U 22114X   23232.06601756 -.00001344  00000-0 -66375-4 0  9996,2 53839  53.2167 161.0755 0001277  88.2547 271.8591 15.08829430 51638,6917.913,95.438,540.661,538.894,0.0
53839.0,STARLINK-4784,PAYLOAD,2023-08-21 01:25:49,15.08847991,0.0001278,53.217,156.6153,95.0848,265.029,3.4113e-05,2.55e-06,0.0,0 STARLINK-4784,1 53839U 22114X   23233.05960260  .00000255  00000-0  34113-4 0  9997,2 53839  53.2170 156.6153 0001278  95.0848 265.0290 15.08847991 51784,6917.856,95.437,540.605,538.837,0.0
53839.0,STARLINK-4784,PAYLOAD,2023-08-21 04:36:35,15.08854695,0.0001388,53.2174,156.0196,99.6216,260.4933,7.5856e-05,9.2e-06,0.0,0 STARLINK-4784,1 53839U 22114X   23233.19207610  .00000920  00000-0  75856-4 0  9993,2 53839  53.2174 156.0196 0001388  99.6216 260.4933 15.08854695 51805,6917.835,95.437,540.661,538.74,0.0
53839.0,STARLINK-4784,PAYLOAD,2023-08-22 04:27:23,15.08839803,0.0001393,53.2174,151.5598,94.5504,265.5648,-5.3901e-06,-3.74e-06,0.0,0 STARLINK-4784,1 53839U 22114X   23234.18568957 -.00000374  00000-0 -53901-5 0  9990,2 53839  53.2174 151.5598 0001393  94.5504 265.5648 15.08839803 51950,6917.881,95.438,540.71,538.782,0.0
53839.0,STARLINK-4784,PAYLOAD,2023-08-24 04:08:57,15.08836872,0.0001399,53.2176,142.6367,96.5021,263.613,8.757e-06,-1.49e-06,0.0,0 STARLINK-4784,1 53839U 22114X   23236.17289137 -.00000149  00000-0  87570-5 0  9999,2 53839  53.2176 142.6367 0001399  96.5021 263.6130 15.08836872 52790,6917.89,95.438,540.723,538.787,0.0
53839.0,STARLINK-4784,PAYLOAD,2023-08-25 02:24:21,15.08835834,0.0001368,53.2177,138.4727,85.2959,274.8189,7.0467e-06,-1.76e-06,0.0,0 STARLINK-4784,1 53839U 22114X   23237.10025460 -.00000176  00000-0  70467-5 0  9997,2 53839  53.2177 138.4727 0001368  85.2959 274.8189 15.08835834 52396,6917.893,95.438,540.704,538.812,0.0
53839.0,STARLINK-4784,PAYLOAD,2023-08-25 03:59:45,15.08843849,0.0001329,53.2175,138.1771,80.2875,279.8267,-0.00013181,-2.385e-05,0.0,0 STARLINK-4784,1 53839U 22114X   23237.16649529 -.00002385  00000-0 -13181-3 0  9994,2 53839  53.2175 138.1771 0001329  80.2875 279.8267 15.08843849 52947,6917.869,95.437,540.653,538.814,0.0
53839.0,STARLINK-4784,PAYLOAD,2023-08-26 02:15:08,15.08841083,0.0001345,53.2176,134.0142,89.3204,270.7942,2.6183e-05,1.29e-06,0.0,0 STARLINK-4784,1 53839U 22114X   23238.09385253  .00000129  00000-0  26183-4 0  9997,2 53839  53.2176 134.0142 0001345  89.3204 270.7942 15.08841083 53083,6917.877,95.437,540.673,538.812,0.0
53839.0,STARLINK-4784,PAYLOAD,2023-08-26 21:19:46,15.08837303,0.0001538,53.2181,130.4473,80.671,279.4456,2.2491e-06,-2.52e-06,0.0,0 STARLINK-4784,1 53839U 22114X   23238.88873765 -.00000252  00000-0  22491-5 0  9991,2 53839  53.2181 130.4473 0001538  80.6710 279.4456 15.08837303 53206,6917.889,95.438,540.818,538.69,0.0
53839.0,STARLINK-4784,PAYLOAD,2023-08-27 02:05:56,15.08825923,0.0001497,53.2175,129.5553,83.4811,276.6352,0.0002164,3.156e-05,0.0,0 STARLINK-4784,1 53839U 22114X   23239.08745579  .00003156  00000-0  21640-3 0  9993,2 53839  53.2175 129.5553 0001497  83.4811 276.6352 15.08825923 52695,6917.923,95.438,540.824,538.753,0.0
53839.0,STARLINK-4784,PAYLOAD,2023-08-27 21:10:33,15.08840007,0.0001386,53.2176,125.9864,80.5155,279.5994,-2.2977e-05,-6.54e-06,0.0,0 STARLINK-4784,1 53839U 22114X   23239.88233664 -.00000654  00000-0 -22977-4 0  9995,2 53839  53.2176 125.9864 0001386  80.5155 279.5994 15.08840007 53355,6917.88,95.438,540.704,538.787,0.0
53839.0,STARLINK-4784,PAYLOAD,2023-08-28 01:56:43,15.08842967,0.0001427,53.2177,125.0949,82.4982,277.6172,-4.8187e-06,-3.65e-06,0.0,0 STARLINK-4784,1 53839U 22114X   23240.08105421 -.00000365  00000-0 -48187-5 0  9999,2 53839  53.2177 125.0949 0001427  82.4982 277.6172 15.08842967 52843,6917.871,95.437,540.724,538.749,0.0
53839.0,STARLINK-4784,PAYLOAD,2023-08-28 21:01:21,15.08838635,0.0001486,53.2169,121.5241,124.0858,236.0275,-9.2046e-05,-1.753e-05,0.0,0 STARLINK-4784,1 53839U 22114X   23240.87593801 -.00001753  00000-0 -92046-4 0  9993,2 53839  53.2169 121.5241 0001486 124.0858 236.0275 15.08838635 53504,6917.885,95.438,540.778,538.722,0.0
53839.0,STARLINK-4784,PAYLOAD,2023-08-29 01:47:30,15.08839703,0.000158,53.2178,120.6321,91.7985,268.3188,-4.4649e-05,-9.99e-06,0.0,0 STARLINK-4784,1 53839U 22114X   23241.07465749 -.00000999  00000-0 -44649-4 0  9992,2 53839  53.2178 120.6321 0001580  91.7985 268.3188 15.08839703 52999,6917.881,95.438,540.839,538.653,0.0
53839.0,STARLINK-4784,PAYLOAD,2023-08-29 19:16:45,15.08805882,0.0001723,53.2172,117.3618,121.8831,238.2329,0.00031289,4.691e-05,0.0,0 STARLINK-4784,1 53839U 22114X   23241.80330058  .00004691  00000-0  31289-3 0  9993,2 53839  53.2172 117.3618 0001723 121.8831 238.2329 15.08805882 53646,6917.985,95.44,541.042,538.658,0.0
53839.0,STARLINK-4784,PAYLOAD,2023-08-30 01:38:17,15.08833609,0.0001433,53.2171,116.1726,108.0074,252.1074,-3.4394e-06,-3.43e-06,0.0,0 STARLINK-4784,1 53839U 22114X   23242.06826076 -.00000343  00000-0 -34394-5 0  9996,2 53839  53.2171 116.1726 0001433 108.0074 252.1074 15.08833609 53680,6917.9,95.438,540.756,538.774,0.0
53839.0,STARLINK-4784,PAYLOAD,2023-08-31 01:29:04,15.08846962,0.0001508,53.216,111.7144,84.8819,275.2345,-7.4142e-05,-1.468e-05,0.0,0 STARLINK-4784,1 53839U 22114X   23243.06185770 -.00001468  00000-0 -74142-4 0  9999,2 53839  53.2160 111.7144 0001508  84.8819 275.2345 15.08846962 53294,6917.859,95.437,540.767,538.681,0.0
53839.0,STARLINK-4784,PAYLOAD,2023-08-31 23:44:29,15.08835148,0.0001423,53.2162,107.5512,83.3745,276.7409,-2.2546e-05,-6.47e-06,0.0,0 STARLINK-4784,1 53839U 22114X   23243.98922491 -.00000647  00000-0 -22546-4 0  9998,2 53839  53.2162 107.5512 0001423  83.3745 276.7409 15.08835148 53433,6917.895,95.438,540.745,538.776,0.0
53839.0,STARLINK-4784,PAYLOAD,2023-09-01 07:41:24,15.08836217,0.0001434,53.2161,106.0643,84.389,275.7266,-2.6182e-05,-7.05e-06,0.0,0 STARLINK-4784,1 53839U 22114X   23244.32042493 -.00000705  00000-0 -26182-4 0  9997,2 53839  53.2161 106.0643 0001434  84.3890 275.7266 15.08836217 54029,6917.892,95.438,540.749,538.765,0.0
53839.0,STARLINK-4784,PAYLOAD,2023-09-01 23:35:15,15.08839563,0.0001292,53.2216,103.0872,85.8363,274.2777,4.3466e-05,4.04e-06,0.0,0 STARLINK-4784,1 53839U 22114X   23244.98281943  .00000404  00000-0  43466-4 0  9992,2 53839  53.2216 103.0872 0001292  85.8363 274.2777 15.08839563 53582,6917.882,95.438,540.641,538.853,0.0
53839.0,STARLINK-4784,PAYLOAD,2023-09-02 13:53:44,15.08835962,0.0001636,53.2127,100.4146,82.7833,277.3345,1.8124e-05,0.0,0.0,0 STARLINK-4784,1 53839U 22114X   23245.57898451  .00000000  00000-0  18124-4 0  9991,2 53839  53.2127 100.4146 0001636  82.7833 277.3345 15.08835962 54213,6917.893,95.438,540.889,538.626,0.0
53839.0,STARLINK-4784,PAYLOAD,2023-09-02 15:29:07,15.0883193,0.000169,53.2195,100.1181,83.1783,276.9402,-1.7098e-05,-5.6e-06,0.0,0 STARLINK-4784,1 53839U 22114X   23245.64522899 -.00000560  00000-0 -17098-4 0  9991,2 53839  53.2195 100.1181 0001690  83.1783 276.9402 15.08831930 53683,6917.905,95.438,540.939,538.601,0.0
53839.0,STARLINK-4784,PAYLOAD,2023-09-02 18:39:54,15.08831078,0.0001508,53.2195,99.5236,86.4499,273.6666,-8.9118e-06,-4.3e-06,0.0,0 STARLINK-4784,1 53839U 22114X   23245.77770901 -.00000430  00000-0 -89118-5 0  9993,2 53839  53.2195  99.5236 0001508  86.4499 273.6666 15.08831078 54245,6917.908,95.438,540.816,538.729,0.0
